hospitalid,name,address,city,state,zipcode,contactnumber
1,Mickie Matijevic,76 Buhler Trail,Flushing,NY,303480054,9171870427
2,Ruthy McQuillan,6 Fieldstone Junction,Norman,OK,117724870,4053630370
3,Bernadette Whitehurst,96 Victoria Alley,Wichita,KS,25304,3162786218
4,Piggy Lansdown,642 Clemons Park,Charlotte,NC,117724870,7047756481
5,Kimberley Scandwright,709 8th Drive,Huntsville,AL,086902801,2564857905
6,Hedi Nichol,24428 Main Lane,Kansas City,KS,766452621,9139507282
7,Britte Hayle,58588 Homewood Junction,Denver,CO,937296657,3036142136
8,Cissy Ferrillio,94115 Loftsgordon Junction,Alexandria,VA,71754,5714445003
9,Kissee Brockherst,16 Randy Point,Salt Lake City,UT,462221672,8011763289
10,Tedmund Hook,7153 Haas Alley,Las Vegas,NV,751163331,7028583193
11,Westbrook Scrooby,97 Brickson Park Parkway,Dearborn,MI,461221989,7343459237
12,Aharon Minguet,1 7th Trail,Stockton,CA,170330858,2093400452
13,Druci Norton,8401 Riverside Plaza,Winston Salem,NC,759514916,3367506693
14,Genni Deinhard,0 Vernon Way,Bloomington,IL,752845347,3095723200
15,Leanor Faye,05978 Stephen Alley,Springfield,MO,712915327,4173051882
16,Ernst Cohan,3 Starling Hill,San Jose,CA,018901446,4081152352
17,Gualterio Gibbie,657 Manitowish Avenue,Omaha,NE,070245622,4029299772
18,Zechariah Kinvan,39790 Thierer Trail,Erie,PA,585520730,8148268902
19,Torin Dawidowitz,71 Mandrake Trail,San Diego,CA,112015425,6193766306
20,Killian Spaunton,2372 Waubesa Crossing,Midland,TX,508011054,4328956397
21,Adrianna Montacute,88532 Burrows Avenue,Santa Ana,CA,287417600,2138548272
22,Maury Blything,4030 Dakota Circle,Phoenix,AZ,138202629,6236694281
23,Angela Busek,5436 Cherokee Junction,Wilmington,DE,482772040,3027731613
24,Rachelle Farrar,2 Utah Parkway,Las Vegas,NV,330307264,7025339432
25,Ellary Barnet,5497 Melby Circle,Washington,DC,274011004,2023822968
26,Phillip Pinney,94 Waxwing Lane,Norfolk,VA,331445035,7574585565
27,Mauricio Dinesen,6 Hazelcrest Crossing,Oklahoma City,OK,846063554,4052853243
28,Sam Treamayne,8560 Sugar Trail,Galveston,TX,325412824,4095929321
29,Tirrell Warburton,23 Elmside Lane,Boise,ID,788014822,2088015582
30,Karlotta Trewinnard,56086 Fisk Point,Saint Petersburg,FL,638631358,7271539232
31,Ambrosio Moncreiff,04 Bay Terrace,Metairie,LA,756711599,5047591144
32,Pen Balharry,5 Namekagon Park,Sparks,NV,317924255,7758670152
33,Gery Smyth,3 Kinsman Street,Carlsbad,CA,690210710,7601358946
34,Lester Dinjes,3656 Golf View Avenue,Colorado Springs,CO,749531148,7194337141
35,Reamonn Donnell,4481 Merchant Court,Columbia,SC,334155688,8036186121
36,Batsheva Itzig,83126 Almo Parkway,Cincinnati,OH,146420001,5136037500
37,Libbie Catt,772 Parkside Hill,Washington,DC,065191703,2024048489
38,Silvain Hearnshaw,361 Brickson Park Parkway,Rochester,MN,232271149,5075868299
39,Janene Coventon,452 Myrtle Hill,El Paso,TX,810523943,9158412563
40,Nicol Rosencwaig,692 Independence Lane,Erie,PA,900741515,8142332265
41,Rock Castillo,02755 Dryden Trail,Las Vegas,NV,939303432,7029779776
42,Jecho Courtois,5924 Southridge Terrace,Colorado Springs,CO,501121898,7194910753
43,Debbi Bourthoumieux,575 Sugar Hill,Bakersfield,CA,240111713,6615920389
44,Robinia Ferrarotti,314 Prairie Rose Terrace,Birmingham,AL,760107445,2057941189
45,Adah Roelvink,51 Crest Line Way,Seattle,WA,584130450,2063477414
46,Gayleen Gooden,0677 Clemons Pass,Bradenton,FL,60608,9412337378
47,Lesley Guntrip,8 Dahle Plaza,Phoenix,AZ,333243920,6234135922
48,Vonnie Gaffney,751 Superior Lane,San Antonio,TX,800457106,2102355964
49,Josephine Boake,346 Carey Street,New Castle,PA,334268249,7246400754
50,Zorah Smurfit,1970 Kings Road,New York City,NY,462292675,3478013038
